OBJECT_NAME,OBJECT_ID,EPOCH,MEAN_MOTION,ECCENTRICITY,INCLINATION,RA_OF_ASC_NODE,ARG_OF_PERICENTER,MEAN_ANOMALY,EPHEMERIS_TYPE,CLASSIFICATION_TYPE,NORAD_CAT_ID,ELEMENT_SET_NO,REV_AT_EPOCH,BSTAR,MEAN_MOTION_DOT,MEAN_MOTION_DDOT
H-2A R/B,2006-002B,2026-07-09T09:32:22.345440,15.18384851,.00504531,98.2584,348.2433,185.7186,174.3476,0,U,28932,999,11289,.30027084E-3,.6298E-4,0
RESURS-DK 1,2006-021A,2026-07-09T05:53:23.533728,15.13306588,.00067816,69.9328,282.4503,277.8398,82.1999,0,U,29228,999,10591,.74140722E-4,.1215E-4,0
CZ-4B R/B,2006-046C,2026-07-10T01:30:03.538944,15.17955969,.0032078,97.5443,235.5991,200.0465,159.9511,0,U,29507,999,7860,.144335E-3,.2898E-4,0
CZ-2C R/B,2007-010B,2026-07-09T06:01:40.747584,14.20280908,.00579085,98.4114,297.5248,301.3979,58.1542,0,U,31114,999,99697,.3951846E-4,.44E-6,0
COSMO-SKYMED 1,2007-023A,2026-07-10T06:14:06.442656,14.97205201,.00010716,97.8844,23.3108,96.7076,263.4268,0,U,31598,999,3324,.12367892E-3,.137E-4,0
COSMOS 2428,2007-029A,2026-07-09T12:21:53.468352,14.12931512,.00071712,70.9381,307.5965,92.2746,267.9197,0,U,31792,999,98130,.11084189E-3,.159E-5,0
SL-16 R/B,2007-029B,2026-07-10T05:20:07.553760,14.14850723,.00020909,70.9750,274.8067,257.2336,133.5734,0,U,31793,999,98270,-.14250226E-4,-.75E-6,0
KORONAS-FOTON,2009-003A,2026-07-09T19:08:40.097184,15.46211676,.00124762,82.4294,148.6652,78.8517,281.4133,0,U,33504,999,96459,.19314485E-3,.9555E-4,0
CZ-2C R/B,2011-030B,2026-07-09T11:22:30.802368,14.81525245,.0051154,97.8666,145.4600,315.2478,156.9019,0,U,37731,999,80812,.10763447E-3,.807E-5,0
H-2A R/B,2012-025E,2026-07-09T13:36:24.361632,14.95827322,.00422455,98.4848,167.5608,274.1610,85.4781,0,U,38341,999,76643,.14636847E-3,.1592E-4,0
SHIJIAN-16 (SJ-16),2013-057A,2026-07-10T07:06:51.246144,14.92664630,.00159563,74.9734,312.9127,176.6393,183.4906,0,U,39358,999,68979,.17818426E-3,.1812E-4,0
SL-4 R/B,2014-021B,2026-07-10T03:11:04.016832,15.42416724,.00899984,51.6056,98.3228,189.8462,170.0762,0,U,39679,999,67515,.16183096E-3,.7771E-4,0
ALOS-2,2014-029A,2026-07-10T06:28:13.996416,14.79473467,.0001612,97.9221,288.1036,93.0589,267.0807,0,U,39766,999,65499,.38052776E-4,.233E-5,0
YAOGAN-29,2015-069A,2026-07-10T07:39:40.332384,14.83106502,.0001112,98.0027,219.9877,22.2416,337.8846,0,U,41038,999,57405,.11290852E-3,.866E-5,0
ASTRO-H (HITOMI),2016-012A,2026-07-10T07:03:02.959200,15.10620381,.0009558,30.9996,284.9490,125.9572,234.1953,0,U,41337,999,57078,.10198159E-3,.1824E-4,0
HXMT (HUIYAN),2017-034A,2026-07-10T02:09:21.063168,15.18660042,.00326976,43.0148,55.4962,289.6082,70.1239,0,U,42758,999,50114,.17546473E-3,.3508E-4,0
SAOCOM 1A,2018-076A,2026-07-10T07:00:40.599648,14.82146120,.00014951,97.8894,17.7052,83.1667,276.9716,0,U,43641,999,41952,.48189068E-4,.331E-5,0
H-2A R/B,2018-084L,2026-07-10T02:39:55.437120,15.46067255,.00207514,98.8546,75.0238,319.4603,40.5095,0,U,43682,999,42466,.32750323E-3,.16036E-3,0
SAOCOM 1B,2020-059A,2026-07-10T06:08:26.850048,14.82153597,.00015336,97.8897,16.7652,81.8453,278.2934,0,U,46265,999,31690,-.36972189E-4,-.347E-5,0
CSS (TIANHE),2021-035A,2026-07-10T05:09:52.576704,15.58015945,.0002669,41.4687,182.0167,284.9103,75.1440,0,U,48274,999,29676,.23426691E-4,.1478E-4,0
COSMOS 2550,2021-056A,2026-07-10T07:16:55.139808,15.33795487,.00084634,67.1431,29.9813,271.0594,88.9591,0,U,48865,999,28226,.26677762E-4,.685E-5,0
CZ-2C R/B,2022-058K,2026-07-10T00:09:16.176672,15.63552330,.00306198,50.1859,44.6364,1.0479,359.0554,0,U,52794,999,22921,.35317433E-3,.33849E-3,0
CZ-2C R/B,2022-132E,2026-07-09T23:47:33.063360,15.74465025,.00104097,97.2898,199.0795,4.6583,355.4777,0,U,54039,999,20953,.37901472E-3,.55194E-3,0
GSLV R/B,2022-138AN,2026-07-09T05:44:16.141344,14.97366438,.002404,87.3814,125.5791,71.8269,288.5577,0,U,54149,999,20211,.18438878E-3,.2182E-4,0
XRISM,2023-137A,2026-07-10T05:18:47.682144,15.12649077,.000784,31.0008,210.3738,196.7310,163.3071,0,U,57800,999,15635,.13227435E-3,.2469E-4,0
ACS3,2024-077B,2026-07-10T03:54:36.093600,13.95378034,.01177649,97.1735,104.8549,42.7288,318.2962,0,U,59588,999,11124,.13256571E-1,.19046E-3,0
SPACEMOBILE-003,2024-163A,2026-07-10T03:40:05.852928,15.20788598,.00053194,52.9663,203.8314,179.8371,180.2626,0,U,61045,999,10126,.34676467E-4,.447E-5,0
SPACEMOBILE-005,2024-163B,2026-07-09T17:48:29.962080,15.20763652,.00087506,52.9802,205.6616,178.6787,181.4232,0,U,61046,999,10119,.21850555E-3,.4552E-4,0
SPACEMOBILE-001,2024-163C,2026-07-10T01:39:25.476768,15.20815495,.00075534,52.9749,203.8741,178.7608,181.3406,0,U,61047,999,10124,.37894656E-4,.518E-5,0
SPACEMOBILE-002,2024-163D,2026-07-10T06:00:14.177376,15.20865625,.0006595,52.9774,203.0799,177.9228,182.1795,0,U,61048,999,10127,.28000536E-3,.5943E-4,0
